[ {"spaceTrack": {"CCSDS_OMM_VERS": "2.0", "COMMENT": "GENERATED VIA SPACE-TRACK.ORG API", "CREATION_DATE": "2020-08-23 15:16:09", "ORIGINATOR": "18 SPCS", "OBJECT_NAME": "STARLINK-1278", "OBJECT_ID": "2020-019BA", "CENTER_NAME": "EARTH", "REF_FRAME": "TEME", "TIME_SYSTEM": "UTC", "MEAN_ELEMENT_THEORY": "SGP4", "EPOCH": "2020-08-23 14:00:01.999872", "MEAN_MOTION": 15.0558919, "ECCENTRICITY": 0.0001002, "INCLINATION": 52.9987, "RA_OF_ASC_NODE": 253.194, "ARG_OF_PERICENTER": 91.0157, "MEAN_ANOMALY": 137.2786, "EPHEMERIS_TYPE": 0, "CLASSIFICATION_TYPE": "U", "NORAD_CAT_ID": 45408, "ELEMENT_SET_NO": 999, "REV_AT_EPOCH": 2437, "BSTAR": 0.00033573, "MEAN_MOTION_DOT": 4.617e-05, "MEAN_MOTION_DDOT": 0, "SEMIMAJOR_AXIS": 6927.834, "PERIOD": 95.643, "APOAPSIS": 550.393, "PERIAPSIS": 549.005, "OBJECT_TYPE": "PAYLOAD", "RCS_SIZE": "LARGE", "COUNTRY_CODE": "US", "LAUNCH_DATE": "2020-03-18", "SITE": "AFETR", "DECAY_DATE": null, "DECAYED": 0, "FILE": 2807157, "GP_ID": 159942839, "TLE_LINE0": "0 STARLINK-1278", "TLE_LINE1": "1 45408U 20019BA  20236.58335648  .00004617  00000-0  33573-3 0  9990", "TLE_LINE2": "2 45408  52.9987 253.1940 0001002  91.0157 137.2786 15.05589190 24376"}, "version": "v1.0", "launch": "5eb87d43ffd86e000604b385", "longitude": 145.06064714644214, "latitude": -40.72390433504249, "height_km": 563.6760190176801, "velocity_kms": 7.578931883458389, "id": "5eed7715096e590006985787"}, {"spaceTrack": {"CCSDS_OMM_VERS": "2.0", "COMMENT": "GENERATED VIA SPACE-TRACK.ORG API", "CREATION_DATE": "2020-08-23 22:16:09", "ORIGINATOR": "18 SPCS", "OBJECT_NAME": "STARLINK-1329", "OBJECT_ID": "2020-025A", "CENTER_NAME": "EARTH", "REF_FRAME": "TEME", "TIME_SYSTEM": "UTC", "MEAN_ELEMENT_THEORY": "SGP4", "EPOCH": "2020-08-23 20:00:01.000224", "MEAN_MOTION": 15.05573654, "ECCENTRICITY": 0.0001612, "INCLINATION": 52.9997, "RA_OF_ASC_NODE": 192.0599, "ARG_OF_PERICENTER": 89.1362, "MEAN_ANOMALY": 277.2349, "EPHEMERIS_TYPE": 0, "CLASSIFICATION_TYPE": "U", "NORAD_CAT_ID": 45531, "ELEMENT_SET_NO": 999, "REV_AT_EPOCH": 1946, "BSTAR": 0.0023671, "MEAN_MOTION_DOT": 0.00034372, "MEAN_MOTION_DDOT": 0, "SEMIMAJOR_AXIS": 6927.882, "PERIOD": 95.644, "APOAPSIS": 550.864, "PERIAPSIS": 548.63, "OBJECT_TYPE": "PAYLOAD", "RCS_SIZE": "LARGE", "COUNTRY_CODE": "US", "LAUNCH_DATE": "2020-04-22", "SITE": "AFETR", "DECAY_DATE": null, "DECAYED": 0, "FILE": 2807206, "GP_ID": 159984710, "TLE_LINE0": "0 STARLINK-1329", "TLE_LINE1": "1 45531U 20025A   20236.83334491  .00034372  00000-0  23671-2 0  9995", "TLE_LINE2": "2 45531  52.9997 192.0599 0001612  89.1362 277.2349 15.05573654 19460"}, "version": "v1.0", "launch": "5eb87d44ffd86e000604b386", "longitude": -33.90739111065599, "latitude": 52.61837327424688, "height_km": 555.0346358289116, "velocity_kms": 7.59107987104821, "id": "5eed7715096e590006985788"}, {"spaceTrack": {"CCSDS_OMM_VERS": "2.0", "COMMENT": "GENERATED VIA SPACE-TRACK.ORG API", "CREATION_DATE": "2020-08-23 17:26:13", "ORIGINATOR": "18 SPCS", "OBJECT_NAME": "STARLINK-1354", "OBJECT_ID": "2020-025AH", "CENTER_NAME": "EARTH", "REF_FRAME": "TEME", "TIME_SYSTEM": "UTC", "MEAN_ELEMENT_THEORY": "SGP4", "EPOCH": "2020-08-23 14:00:01.999872", "MEAN_MOTION": 15.05564514, "ECCENTRICITY": 0.0001379, "INCLINATION": 53.0014, "RA_OF_ASC_NODE": 173.1751, "ARG_OF_PERICENTER": 87.6722, "MEAN_ANOMALY": 203.1518, "EPHEMERIS_TYPE": 0, "CLASSIFICATION_TYPE": "U", "NORAD_CAT_ID": 45562, "ELEMENT_SET_NO": 999, "REV_AT_EPOCH": 175, "BSTAR": -0.00032925, "MEAN_MOTION_DOT": -5.071e-05, "MEAN_MOTION_DDOT": 0, "SEMIMAJOR_AXIS": 6927.91, "PERIOD": 95.645, "APOAPSIS": 550.73, "PERIAPSIS": 548.82, "OBJECT_TYPE": "PAYLOAD", "RCS_SIZE": "LARGE", "COUNTRY_CODE": "US", "LAUNCH_DATE": "2020-04-22", "SITE": "AFETR", "DECAY_DATE": null, "DECAYED": 0, "FILE": 2807181, "GP_ID": 159961828, "TLE_LINE0": "0 STARLINK-1354", "TLE_LINE1": "1 45562U 20025AH  20236.58335648 -.00005071 +00000-0 -32925-3 0  9995", "TLE_LINE2": "2 45562 053.0014 173.1751 0001379 087.6722 203.1518 15.05564514001753"}, "version": "v1.0", "launch": "5eb87d44ffd86e000604b386", "longitude": 155.0094406848934, "latitude": -45.56596165815531, "height_km": 566.0643828858902, "velocity_kms": 7.5774644799571655, "id": "5eed7715096e590006985789"}, {"spaceTrack": {"CCSDS_OMM_VERS": "2.0", "COMMENT": "GENERATED VIA SPACE-TRACK.ORG API", "CREATION_DATE": "2020-08-23 22:46:10", "ORIGINATOR": "18 SPCS", "OBJECT_NAME": "STARLINK-1374", "OBJECT_ID": "2020-025Q", "CENTER_NAME": "EARTH", "REF_FRAME": "TEME", "TIME_SYSTEM": "UTC", "MEAN_ELEMENT_THEORY": "SGP4", "EPOCH": "2020-08-23 22:00:00.999936", "MEAN_MOTION": 15.05598897, "ECCENTRICITY": 0.0001331, "INCLINATION": 53.0004, "RA_OF_ASC_NODE": 191.6841, "ARG_OF_PERICENTER": 77.8799, "MEAN_ANOMALY": 236.4731, "EPHEMERIS_TYPE": 0, "CLASSIFICATION_TYPE": "U", "NORAD_CAT_ID": 45545, "ELEMENT_SET_NO": 999, "REV_AT_EPOCH": 1948, "BSTAR": -7.8644e-05, "MEAN_MOTION_DOT": -1.426e-05, "MEAN_MOTION_DDOT": 0, "SEMIMAJOR_AXIS": 6927.804, "PERIOD": 95.643, "APOAPSIS": 550.592, "PERIAPSIS": 548.747, "OBJECT_TYPE": "PAYLOAD", "RCS_SIZE": "LARGE", "COUNTRY_CODE": "US", "LAUNCH_DATE": "2020-04-22", "SITE": "AFETR", "DECAY_DATE": null, "DECAYED": 0, "FILE": 2807294, "GP_ID": 159987338, "TLE_LINE0": "0 STARLINK-1374", "TLE_LINE1": "1 45545U 20025Q   20236.91667824 -.00001426  00000-0 -78644-4 0  9996", "TLE_LINE2": "2 45545  53.0004 191.6841 0001331  77.8799 236.4731 15.05598897 19487"}, "version": "v1.0", "launch": "5eb87d44ffd86e000604b386", "longitude": -168.15812533665755, "latitude": -36.0244794781044, "height_km": 561.7115759876424, "velocity_kms": 7.580039353417744, "id": "5eed7715096e59000698578a"}, {"spaceTrack": {"CCSDS_OMM_VERS": "2.0", "COMMENT": "GENERATED VIA SPACE-TRACK.ORG API", "CREATION_DATE": "2020-08-23 15:16:09", "ORIGINATOR": "18 SPCS", "OBJECT_NAME": "STARLINK-1291", "OBJECT_ID": "2020-019AK", "CENTER_NAME": "EARTH", "REF_FRAME": "TEME", "TIME_SYSTEM": "UTC", "MEAN_ELEMENT_THEORY": "SGP4", "EPOCH": "2020-08-23 14:00:01.999872", "MEAN_MOTION": 15.05596614, "ECCENTRICITY": 0.0001486, "INCLINATION": 53.0004, "RA_OF_ASC_NODE": 233.1828, "ARG_OF_PERICENTER": 80.1622, "MEAN_ANOMALY": 42.1785, "EPHEMERIS_TYPE": 0, "CLASSIFICATION_TYPE": "U", "NORAD_CAT_ID": 45393, "ELEMENT_SET_NO": 999, "REV_AT_EPOCH": 2469, "BSTAR": -0.0014, "MEAN_MOTION_DOT": -0.00020627, "MEAN_MOTION_DDOT": 0, "SEMIMAJOR_AXIS": 6927.811, "PERIOD": 95.643, "APOAPSIS": 550.706, "PERIAPSIS": 548.647, "OBJECT_TYPE": "PAYLOAD", "RCS_SIZE": "LARGE", "COUNTRY_CODE": "US", "LAUNCH_DATE": "2020-03-18", "SITE": "AFETR", "DECAY_DATE": null, "DECAYED": 0, "FILE": 2807160, "GP_ID": 159942635, "TLE_LINE0": "0 STARLINK-1291", "TLE_LINE1": "1 45393U 20019AK  20236.58335648 -.00020627  00000-0 -14000-2 0  9997", "TLE_LINE2": "2 45393  53.0004 233.1828 0001486  80.1622  42.1785 15.05596614 24693"}, "version": "v1.0", "launch": "5eb87d43ffd86e000604b385", "longitude": 47.79924828371032, "latitude": 38.811723287679314, "height_km": 552.3613094263883, "velocity_kms": 7.5909192010691475, "id": "5eed7715096e59000698578b"}, {"spaceTrack": {"CCSDS_OMM_VERS": "2.0", "COMMENT": "GENERATED VIA SPACE-TRACK.ORG API", "CREATION_DATE": "2020-08-23 17:26:13", "ORIGINATOR": "18 SPCS", "OBJECT_NAME": "STARLINK-1341", "OBJECT_ID": "2020-025D", "CENTER_NAME": "EARTH", "REF_FRAME": "TEME", "TIME_SYSTEM": "UTC", "MEAN_ELEMENT_THEORY": "SGP4", "EPOCH": "2020-08-23 14:00:01.999872", "MEAN_MOTION": 15.05602748, "ECCENTRICITY": 0.0001494, "INCLINATION": 53.0023, "RA_OF_ASC_NODE": 193.1787, "ARG_OF_PERICENTER": 81.7645, "MEAN_ANOMALY": 242.8506, "EPHEMERIS_TYPE": 0, "CLASSIFICATION_TYPE": "U", "NORAD_CAT_ID": 45534, "ELEMENT_SET_NO": 999, "REV_AT_EPOCH": 175, "BSTAR": -0.002175, "MEAN_MOTION_DOT": -0.00031847, "MEAN_MOTION_DDOT": 0, "SEMIMAJOR_AXIS": 6927.793, "PERIOD": 95.642, "APOAPSIS": 550.693, "PERIAPSIS": 548.623, "OBJECT_TYPE": "PAYLOAD", "RCS_SIZE": "LARGE", "COUNTRY_CODE": "US", "LAUNCH_DATE": "2020-04-22", "SITE": "AFETR", "DECAY_DATE": null, "DECAYED": 0, "FILE": 2807181, "GP_ID": 159962571, "TLE_LINE0": "0 STARLINK-1341", "TLE_LINE1": "1 45534U 20025D   20236.58335648 -.00031847 +00000-0 -21750-2 0  9997", "TLE_LINE2": "2 45534 053.0023 193.1787 0001494 081.7645 242.8506 15.05602748001759"}, "version": "v1.0", "launch": "5eb87d44ffd86e000604b386", "longitude": -153.80202655947656, "latitude": -23.12535758589031, "height_km": 556.703349672006, "velocity_kms": 7.583077158653929, "id": "5eed7715096e59000698578c"}, {"spaceTrack": {"CCSDS_OMM_VERS": "2.0", "COMMENT": "GENERATED VIA SPACE-TRACK.ORG API", "CREATION_DATE": "2020-08-23 22:46:10", "ORIGINATOR": "18 SPCS", "OBJECT_NAME": "STARLINK-1259", "OBJECT_ID": "2020-019AV", "CENTER_NAME": "EARTH", "REF_FRAME": "TEME", "TIME_SYSTEM": "UTC", "MEAN_ELEMENT_THEORY": "SGP4", "EPOCH": "2020-08-23 22:00:00.999936", "MEAN_MOTION": 15.05567038, "ECCENTRICITY": 0.0001548, "INCLINATION": 53.0007, "RA_OF_ASC_NODE": 221.6825, "ARG_OF_PERICENTER": 92.7651, "MEAN_ANOMALY": 299.3211, "EPHEMERIS_TYPE": 0, "CLASSIFICATION_TYPE": "U", "NORAD_CAT_ID": 45403, "ELEMENT_SET_NO": 999, "REV_AT_EPOCH": 2493, "BSTAR": 0.0023053, "MEAN_MOTION_DOT": 0.00033457, "MEAN_MOTION_DDOT": 0, "SEMIMAJOR_AXIS": 6927.902, "PERIOD": 95.645, "APOAPSIS": 550.84, "PERIAPSIS": 548.695, "OBJECT_TYPE": "PAYLOAD", "RCS_SIZE": "LARGE", "COUNTRY_CODE": "US", "LAUNCH_DATE": "2020-03-18", "SITE": "AFETR", "DECAY_DATE": null, "DECAYED": 0, "FILE": 2807352, "GP_ID": 159988605, "TLE_LINE0": "0 STARLINK-1259", "TLE_LINE1": "1 45403U 20019AV  20236.91667824  .00033457  00000-0  23053-2 0  9991", "TLE_LINE2": "2 45403  53.0007 221.6825 0001548  92.7651 299.3211 15.05567038 24932"}, "version": "v1.0", "launch": "5eb87d43ffd86e000604b385", "longitude": -85.6196213403926, "latitude": 24.024685392842372, "height_km": 550.106277838192, "velocity_kms": 7.590462399427891, "id": "5eed7715096e59000698578d"}]